{"type": "FeatureCollection", "features": [ {"type": "Feature", "properties": {"norad_id": 33492, "name": "GOSAT (IBUKI)", "group": "resource", "lat": 35.465951449983194, "lon": -64.51351470328557, "alt_km": 665.924551891153, "timestamp": "2025-12-27T06:41:30.555301+00:00", "meta": {"OBJECT_NAME": "GOSAT (IBUKI)", "OBJECT_ID": "2009-002A", "EPOCH": "2025-12-26T21:51:21.566592", "MEAN_MOTION": 14.67552945, "ECCENTRICITY": 0.00010507, "INCLINATION": 98.0771, "RA_OF_ASC_NODE": 109.3172, "ARG_OF_PERICENTER": 105.8098, "MEAN_ANOMALY": 254.3223, "EPHEMERIS_TYPE": 0, "CLASSIFICATION_TYPE": "U", "NORAD_CAT_ID": 33492, "ELEMENT_SET_NO": 999, "REV_AT_EPOCH": 90619, "BSTAR": 0.00019470733, "MEAN_MOTION_DOT": 1.057e-05, "MEAN_MOTION_DDOT": 0}, "tle": {"line1": "1 33492U 09002A   25360.91066628  .00001057  00000+0  19471-3 0  9993", "line2": "2 33492  98.0771 109.3172 0001050 105.8098 254.3223 14.67552945906199"}}, "geometry": {"type": "Point", "coordinates": [-64.51351470328557, 35.465951449983194]}}, {"type": "Feature", "properties": {"norad_id": 35681, "name": "DEIMOS-1", "group": "resource", "lat": -67.87369033915442, "lon": -38.272157752377495, "alt_km": 654.1489873635564, "timestamp": "2025-12-27T06:41:30.555312+00:00", "meta": {"OBJECT_NAME": "DEIMOS-1", "OBJECT_ID": "2009-041A", "EPOCH": "2025-12-26T23:03:11.086272", "MEAN_MOTION": 14.74975897, "ECCENTRICITY": 0.00024101, "INCLINATION": 97.7159, "RA_OF_ASC_NODE": 160.9028, "ARG_OF_PERICENTER": 58.2641, "MEAN_ANOMALY": 301.8803, "EPHEMERIS_TYPE": 0, "CLASSIFICATION_TYPE": "U", "NORAD_CAT_ID": 35681, "ELEMENT_SET_NO": 999, "REV_AT_EPOCH": 88149, "BSTAR": 0.00019641637, "MEAN_MOTION_DOT": 1.273e-05, "MEAN_MOTION_DDOT": 0}, "tle": {"line1": "1 35681U 09041A   25360.96054498  .00001273  00000+0  19642-3 0  9995", "line2": "2 35681  97.7159 160.9028 0002410  58.2641 301.8803 14.74975897881496"}}, "geometry": {"type": "Point", "coordinates": [-38.272157752377495, -67.87369033915442]}}, {"type": "Feature", "properties": {"norad_id": 35682, "name": "DUBAISAT-1", "group": "resource", "lat": 13.27239767531726, "lon": -46.35845351970728, "alt_km": 648.0450319335405, "timestamp": "2025-12-27T06:41:30.555324+00:00", "meta": {"OBJECT_NAME": "DUBAISAT-1", "OBJECT_ID": "2009-041B", "EPOCH": "2025-12-26T21:47:45.041280", "MEAN_MOTION": 14.74643955, "ECCENTRICITY": 0.00092512, "INCLINATION": 97.9799, "RA_OF_ASC_NODE": 131.3802, "ARG_OF_PERICENTER": 263.3551, "MEAN_ANOMALY": 96.6605, "EPHEMERIS_TYPE": 0, "CLASSIFICATION_TYPE": "U", "NORAD_CAT_ID": 35682, "ELEMENT_SET_NO": 999, "REV_AT_EPOCH": 87970, "BSTAR": 0.0002498486, "MEAN_MOTION_DOT": 1.617e-05, "MEAN_MOTION_DDOT": 0}, "tle": {"line1": "1 35682U 09041B   25360.90816020  .00001617  00000+0  24985-3 0  9995", "line2": "2 35682  97.9799 131.3802 0009251 263.3551  96.6605 14.74643955879707"}}, "geometry": {"type": "Point", "coordinates": [-46.35845351970728, 13.27239767531726]}}, {"type": "Feature", "properties": {"norad_id": 35931, "name": "OCEANSAT-2", "group": "resource", "lat": 23.849950704275486, "lon": -3.260738526685331, "alt_km": 883.4787739479398, "timestamp": "2025-12-27T06:41:30.555335+00:00", "meta": {"OBJECT_NAME": "OCEANSAT-2", "OBJECT_ID": "2009-051A", "EPOCH": "2025-12-26T23:42:52.219296", "MEAN_MOTION": 13.99623159, "ECCENTRICITY": 0.00158579, "INCLINATION": 98.2218, "RA_OF_ASC_NODE": 0.1428, "ARG_OF_PERICENTER": 7.5492, "MEAN_ANOMALY": 352.5911, "EPHEMERIS_TYPE": 0, "CLASSIFICATION_TYPE": "U", "NORAD_CAT_ID": 35931, "ELEMENT_SET_NO": 999, "REV_AT_EPOCH": 85524, "BSTAR": 5.7225097e-05, "MEAN_MOTION_DOT": 4.6e-07, "MEAN_MOTION_DDOT": 0}, "tle": {"line1": "1 35931U 09051A   25360.98810439  .00000046  00000+0  57225-4 0  9998", "line2": "2 35931  98.2218   0.1428 0015857   7.5492 352.5911 13.99623159855249"}}, "geometry": {"type": "Point", "coordinates": [-3.260738526685331, 23.849950704275486]}}, {"type": "Feature", "properties": {"norad_id": 35946, "name": "WORLDVIEW-2 (WV-2)", "group": "resource", "lat": -22.434102057829495, "lon": 75.69364140597523, "alt_km": 769.557655783894, "timestamp": "2025-12-27T06:41:30.555345+00:00", "meta": {"OBJECT_NAME": "WORLDVIEW-2 (WV-2)", "OBJECT_ID": "2009-055A", "EPOCH": "2025-12-26T22:26:44.794752", "MEAN_MOTION": 14.3773044, "ECCENTRICITY": 0.00046226, "INCLINATION": 98.477, "RA_OF_ASC_NODE": 71.8247, "ARG_OF_PERICENTER": 35.3934, "MEAN_ANOMALY": 324.756, "EPHEMERIS_TYPE": 0, "CLASSIFICATION_TYPE": "U", "NORAD_CAT_ID": 35946, "ELEMENT_SET_NO": 999, "REV_AT_EPOCH": 85089, "BSTAR": 8.2420492e-05, "MEAN_MOTION_DOT": 2.04e-06, "MEAN_MOTION_DDOT": 0}, "tle": {"line1": "1 35946U 09055A   25360.93524068  .00000204  00000+0  82420-4 0  9994", "line2": "2 35946  98.4770  71.8247 0004622  35.3934 324.7560 14.37730440850894"}}, "geometry": {"type": "Point", "coordinates": [75.69364140597523, -22.434102057829495]}}, {"type": "Feature", "properties": {"norad_id": 36036, "name": "SMOS", "group": "resource", "lat": 60.325425085881164, "lon": 21.2126478414618, "alt_km": 752.8454025996089, "timestamp": "2025-12-27T06:41:30.555356+00:00", "meta": {"OBJECT_NAME": "SMOS", "OBJECT_ID": "2009-059A", "EPOCH": "2025-12-26T11:47:46.851072", "MEAN_MOTION": 14.39753392, "ECCENTRICITY": 0.000104, "INCLINATION": 98.4382, "RA_OF_ASC_NODE": 185.3364, "ARG_OF_PERICENTER": 83.5124, "MEAN_ANOMALY": 276.6183, "EPHEMERIS_TYPE": 0, "CLASSIFICATION_TYPE": "U", "NORAD_CAT_ID": 36036, "ELEMENT_SET_NO": 999, "REV_AT_EPOCH": 84860, "BSTAR": 0.00014539, "MEAN_MOTION_DOT": 4.12e-06, "MEAN_MOTION_DDOT": 0}, "tle": {"line1": "1 36036U 09059A   25360.49151448  .00000412  00000+0  14539-3 0  9994", "line2": "2 36036  98.4382 185.3364 0001040  83.5124 276.6183 14.39753392848607"}}, "geometry": {"type": "Point", "coordinates": [21.2126478414618, 60.325425085881164]}}, {"type": "Feature", "properties": {"norad_id": 36110, "name": "YAOGAN-7", "group": "resource", "lat": 50.60042936944527, "lon": 72.87868680037737, "alt_km": 635.5341976983646, "timestamp": "2025-12-27T06:41:30.555366+00:00", "meta": {"OBJECT_NAME": "YAOGAN-7", "OBJECT_ID": "2009-069A", "EPOCH": "2025-12-26T15:29:02.012352", "MEAN_MOTION": 14.77752551, "ECCENTRICITY": 0.00235216, "INCLINATION": 98.0293, "RA_OF_ASC_NODE": 242.3521, "ARG_OF_PERICENTER": 233.9323, "MEAN_ANOMALY": 125.9709, "EPHEMERIS_TYPE": 0, "CLASSIFICATION_TYPE": "U", "NORAD_CAT_ID": 36110, "ELEMENT_SET_NO": 999, "REV_AT_EPOCH": 86414, "BSTAR": 0.00010378184, "MEAN_MOTION_DOT": 6.94e-06, "MEAN_MOTION_DDOT": 0}, "tle": {"line1": "1 36110U 09069A   25360.64516218  .00000694  00000+0  10378-3 0  9994", "line2": "2 36110  98.0293 242.3521 0023521 233.9323 125.9709 14.77752551864141"}}, "geometry": {"type": "Point", "coordinates": [72.87868680037737, 50.60042936944527]}}, {"type": "Feature", "properties": {"norad_id": 36605, "name": "TANDEM-X", "group": "resource", "lat": 17.847771419464234, "lon": 4.033300689602019, "alt_km": 508.4815076346431, "timestamp": "2025-12-27T06:41:30.555376+00:00", "meta": {"OBJECT_NAME": "TANDEM-X", "OBJECT_ID": "2010-030A", "EPOCH": "2025-12-26T13:13:25.252608", "MEAN_MOTION": 15.1915819, "ECCENTRICITY": 0.0001776, "INCLINATION": 97.4455, "RA_OF_ASC_NODE": 5.7293, "ARG_OF_PERICENTER": 92.0278, "MEAN_ANOMALY": 268.116, "EPHEMERIS_TYPE": 0, "CLASSIFICATION_TYPE": "U", "NORAD_CAT_ID": 36605, "ELEMENT_SET_NO": 999, "REV_AT_EPOCH": 86043, "BSTAR": 6.7415e-05, "MEAN_MOTION_DOT": 1.349e-05, "MEAN_MOTION_DDOT": 0}, "tle": {"line1": "1 36605U 10030A   25360.55098672  .00001349  00000+0  67415-4 0  9995", "line2": "2 36605  97.4455   5.7293 0001776  92.0278 268.1160 15.19158190860436"}}, "geometry": {"type": "Point", "coordinates": [4.033300689602019, 17.847771419464234]}}, {"type": "Feature", "properties": {"norad_id": 36795, "name": "CARTOSAT-2B", "group": "resource", "lat": 70.394980570662, "lon": -107.58371522214206, "alt_km": 624.124827032967, "timestamp": "2025-12-27T06:41:30.555386+00:00", "meta": {"OBJECT_NAME": "CARTOSAT-2B", "OBJECT_ID": "2010-035A", "EPOCH": "2025-12-26T23:42:36.535104", "MEAN_MOTION": 14.78746987, "ECCENTRICITY": 0.00124723, "INCLINATION": 97.7831, "RA_OF_ASC_NODE": 49.5532, "ARG_OF_PERICENTER": 34.4626, "MEAN_ANOMALY": 325.7392, "EPHEMERIS_TYPE": 0, "CLASSIFICATION_TYPE": "U", "NORAD_CAT_ID": 36795, "ELEMENT_SET_NO": 999, "REV_AT_EPOCH": 83440, "BSTAR": 0.00013605395, "MEAN_MOTION_DOT": 9.5e-06, "MEAN_MOTION_DDOT": 0}, "tle": {"line1": "1 36795U 10035A   25360.98792286  .00000950  00000+0  13605-3 0  9997", "line2": "2 36795  97.7831  49.5532 0012472  34.4626 325.7392 14.78746987834407"}}, "geometry": {"type": "Point", "coordinates": [-107.58371522214206, 70.394980570662]}}, {"type": "Feature", "properties": {"norad_id": 36834, "name": "YAOGAN-10", "group": "resource", "lat": 42.85198176371366, "lon": -151.59627365976803, "alt_km": 610.642135622581, "timestamp": "2025-12-27T06:41:30.555397+00:00", "meta": {"OBJECT_NAME": "YAOGAN-10", "OBJECT_ID": "2010-038A", "EPOCH": "2025-12-26T23:59:55.738752", "MEAN_MOTION": 14.84660907, "ECCENTRICITY": 0.0001289, "INCLINATION": 97.9136, "RA_OF_ASC_NODE": 20.7128, "ARG_OF_PERICENTER": 80.4009, "MEAN_ANOMALY": 6.5232, "EPHEMERIS_TYPE": 0, "CLASSIFICATION_TYPE": "U", "NORAD_CAT_ID": 36834, "ELEMENT_SET_NO": 999, "REV_AT_EPOCH": 83165, "BSTAR": 0.00022486051, "MEAN_MOTION_DOT": 1.848e-05, "MEAN_MOTION_DDOT": 0}, "tle": {"line1": "1 36834U 10038A   25360.99995068  .00001848  00000+0  22486-3 0  9992", "line2": "2 36834  97.9136  20.7128 0001289  80.4009   6.5232 14.84660907831658"}}, "geometry": {"type": "Point", "coordinates": [-151.59627365976803, 42.85198176371366]}}]}